GPS BIIA-23 (PRN 18)    
1 22877U 93068A   18363.23166999 -.00000072  00000-0  00000+0 0  9997
2 22877  54.5627  75.5069 0147423  78.2301  36.7938  2.00570984184465
GPS BIIR-2  (PRN 13)    
1 24876U 97035A   18362.97068780  .00000074  00000-0  00000+0 0  9996
2 24876  55.4697 205.1311 0034926  79.1257 281.3194  2.00564267157051
GPS BIIR-3  (PRN 11)    
1 25933U 99055A   18362.75437878 -.00000084  00000-0  00000-0 0  9992
2 25933  52.0183  53.2251 0164394 106.3808  25.0933  2.00562547140877
GPS BIIR-4  (PRN 20)    
1 26360U 00025A   18363.40361326  .00000026  00000-0  00000+0 0  9997
2 26360  53.2687 131.5219 0042969 129.0101 157.3753  2.00563106136572
GPS BIIR-5  (PRN 28)    
1 26407U 00040A   18363.53588300 -.00000067  00000-0  00000+0 0  9999
2 26407  56.3695 323.2462 0197591 274.8214  82.9655  2.00561161135250
GPS BIIR-6  (PRN 14)    
1 26605U 00071A   18363.54200091  .00000081  00000-0  00000+0 0  9997
2 26605  55.0437 202.6235 0102202 248.8429  23.4349  2.00565138132853
GPS BIIR-8  (PRN 16)    
1 27663U 03005A   18363.50924428 -.00000067  00000-0  00000+0 0  9990
2 27663  56.4316 323.0145 0102444  28.8750  68.4561  2.00554861116610
GPS BIIR-9  (PRN 21)    
1 27704U 03010A   18363.33354480 -.00000073  00000-0  00000+0 0  9995
2 27704  54.2359  75.0268 0248865 274.1252  22.8662  2.00576385115418
GPS BIIR-10 (PRN 22)    
1 28129U 03058A   18363.16565102  .00000033  00000-0  00000+0 0  9990
2 28129  53.0811 134.3493 0072623 277.0684  82.0802  2.00569190110108
GPS BIIR-11 (PRN 19)    
1 28190U 04009A   18363.36797223 -.00000074  00000-0  00000+0 0  9994
2 28190  56.2332  23.8171 0091433  75.6800  70.6020  2.00570856108288
GPS BIIR-12 (PRN 23)    
1 28361U 04023A   18363.28985500  .00000083  00000-0  00000+0 0  9997
2 28361  54.0520 197.1754 0128206 228.2051 134.5171  2.00563588106377
GPS BIIR-13 (PRN 02)    
1 28474U 04045A   18363.43218287 -.00000074  00000-0  00000+0 0  9995
2 28474  54.5987  74.7112 0188871 257.2028 212.1817  2.00569494103731
GPS BIIRM-1 (PRN 17)    
1 28874U 05038A   18363.12295998 -.00000073  00000-0  00000+0 0  9991
2 28874  56.3650  21.1598 0132073 260.3471  94.1207  2.00564773 97138
GPS BIIRM-2 (PRN 31)    
1 29486U 06042A   18363.47301347 -.00000025  00000-0  00000+0 0  9998
2 29486  55.0770 259.8435 0091523 355.9017 167.0877  2.00547935 89852
GPS BIIRM-3 (PRN 12)    
1 29601U 06052A   18363.18663872 -.00000064  00000-0  00000+0 0  9993
2 29601  56.4099 321.9437 0070306  57.4952 303.1810  2.00558049 88768
GPS BIIRM-4 (PRN 15)    
1 32260U 07047A   18363.50225452  .00000086  00000-0  00000+0 0  9990
2 32260  53.1758 193.0112 0110087  42.1590 318.7172  2.00569708 82140
GPS BIIRM-5 (PRN 29)    
1 32384U 07062A   18363.50354819 -.00000073  00000-0  00000+0 0  9991
2 32384  56.4446  21.7701 0003808  89.0923  49.0089  2.00574562 80884
GPS BIIRM-6 (PRN 07)    
1 32711U 08012A   18362.91130839 -.00000022  00000-0  00000+0 0  9993
2 32711  54.8142 259.0964 0122613 218.7936 140.3817  2.00569287 79050
GPS BIIRM-8 (PRN 05)    
1 35752U 09043A   18363.43249833  .00000039  00000-0  00000+0 0  9996
2 35752  54.3742 136.7885 0054289  39.7237   2.4581  2.00571714 68658
GPS BIIF-1  (PRN 25)    
1 36585U 10022A   18363.55251687 -.00000069  00000-0  00000+0 0  9997
2 36585  55.6936 318.3507 0077507  47.3085 190.6013  2.00551620 62899
GPS BIIF-2  (PRN 01)    
1 37753U 11036A   18363.29554689 -.00000068  00000-0  00000+0 0  9999
2 37753  55.7960  78.4769 0080844  38.3868  96.0316  2.00565096 54579
GPS BIIF-3  (PRN 24)    
1 38833U 12053A   18363.09181294 -.00000018  00000-0  00000+0 0  9990
2 38833  53.8467 255.4558 0078397  31.3909 329.1382  2.00555853 45643
GPS BIIF-4  (PRN 27)    
1 39166U 13023A   18363.45556423 -.00000073  00000-0  00000+0 0  9999
2 39166  56.0545  17.9791 0062757  22.3294 337.9827  2.00560496 41180
GPS BIIF-5  (PRN 30)    
1 39533U 14008A   18362.45559661 -.00000023  00000-0  00000+0 0  9992
2 39533  53.9845 260.8576 0036118 191.4340 168.5446  2.00566379 35532
GPS BIIF-6  (PRN 06)    
1 39741U 14026A   18363.23604268 -.00000068  00000-0  00000+0 0  9993
2 39741  55.7775  78.0038 0014970 287.2288  72.6397  2.00552849 33821
GPS BIIF-7  (PRN 09)    
1 40105U 14045A   18362.82432390  .00000080  00000-0  00000+0 0  9992
2 40105  54.5783 197.4048 0012421  97.7215 262.4601  2.00552795 32267
GPS BIIF-8  (PRN 03)    
1 40294U 14068A   18363.19602133  .00000045  00000-0  00000+0 0  9992
2 40294  55.1260 138.2182 0017416  34.0194 326.0658  2.00570532 30495
GPS BIIF-9  (PRN 26)    
1 40534U 15013A   18362.83822810 -.00000065  00000-0  00000+0 0  9999
2 40534  54.6277 316.8994 0034355   0.4074 359.5960  2.00551807 27558
GPS BIIF-10  (PRN 08)   
1 40730U 15033A   18362.99218698 -.00000073  00000-0  00000+0 0  9998
2 40730  55.5819  17.4144 0041300 334.2536  25.5796  2.00563828 25313
GPS BIIF-11  (PRN 10)   
1 41019U 15062A   18363.04484572  .00000045  00000-0  00000+0 0  9992
2 41019  55.1289 138.0340 0042429 202.6157 157.1718  2.00564455 23130
GPS BIIF-12  (PRN 32)   
1 41328U 16007A   18362.13989077  .00000075  00000-0  00000+0 0  9997
2 41328  54.8250 197.7756 0025222 213.6936 146.1867  2.00555645 21175
